GLOBALSTAR M001         
1 25162U 98008A   25166.40673911 -.00000058  00000+0  29590-3 0  9993
2 25162  52.0051 338.4063 0000843 216.0727 151.7575 12.38214483243497
GLOBALSTAR M004         
1 25163U 98008B   25166.27561837 -.00000094  00000+0  52899-4 0  9991
2 25163  52.0016  59.9827 0002641 298.5077 218.4015 12.63396699261446
GLOBALSTAR M002         
1 25164U 98008C   25166.53021602 -.00000048  00000+0  55809-3 0  9994
2 25164  52.0006 244.3602 0001851 151.6275 208.4646 11.61509621183875
GLOBALSTAR M003         
1 25165U 98008D   25166.49338869 -.00000147  00000+0 -61100-3 0  9998
2 25165  51.9959 173.2157 0008099 290.2541 232.0008 12.12074605233016
GLOBALSTAR M006         
1 25307U 98023B   25166.39131962 -.00000071  00000+0  90659-4 0  9994
2 25307  51.9919 220.3760 0003149 108.3973 264.3281 11.58176241216620
GLOBALSTAR M015         
1 25308U 98023C   25166.38499072 -.00000032  00000+0  95451-3 0  9994
2 25308  51.9839 318.7792 0013121  74.3681 298.8425 11.48859552193873
GLOBALSTAR M008         
1 25309U 98023D   25166.55741169 -.00000090  00000+0  50064-4 0  9997
2 25309  51.9944 202.7806 0002816 173.7364 343.7672 12.36070516237641
